[
  {
    "COMMENT": "GENERATED VIA SPACETRACK.ORG API",
    "ORIGINATOR": "18 SPCS",
    "NORAD_CAT_ID": "25260",
    "OBJECT_NAME": "SPOT 4",
    "OBJECT_TYPE": "PAYLOAD",
    "CLASSIFICATION_TYPE": "U",
    "INTLDES": "98017A",
    "EPOCH": "2023-06-13 06:26:46",
    "EPOCH_MICROSECONDS": "150944",
    "MEAN_MOTION": "14.54200047",
    "ECCENTRICITY": "0.0013401",
    "INCLINATION": "98.2636",
    "RA_OF_ASC_NODE": "257.297",
    "ARG_OF_PERICENTER": "26.5461",
    "MEAN_ANOMALY": "333.6419",
    "EPHEMERIS_TYPE": "0",
    "ELEMENT_SET_NO": "999",
    "REV_AT_EPOCH": "31934",
    "BSTAR": "0.00011373",
    "MEAN_MOTION_DOT": "0.00000437",
    "MEAN_MOTION_DDOT": "0",
    "FILE": "3932371",
    "TLE_LINE0": "0 SPOT 4",
    "TLE_LINE1": "1 25260U 98017A   23164.26858971  .00000437  00000-0  11373-3 0  9994",
    "TLE_LINE2": "2 25260  98.2636 257.2970 0013401  26.5461 333.6419 14.54200047319342",
    "OBJECT_ID": "1998-017A",
    "OBJECT_NUMBER": "25260",
    "SEMIMAJOR_AXIS": "7090.101",
    "PERIOD": "99.024",
    "APOGEE": "721.467",
    "PERIGEE": "702.464",
    "DECAYED": "0"
  },
  {
    "COMMENT": "GENERATED VIA SPACETRACK.ORG API",
    "ORIGINATOR": "18 SPCS",
    "NORAD_CAT_ID": "25260",
    "OBJECT_NAME": "SPOT 4",
    "OBJECT_TYPE": "PAYLOAD",
    "CLASSIFICATION_TYPE": "U",
    "INTLDES": "98017A",
    "EPOCH": "2023-06-14 00:36:40",
    "EPOCH_MICROSECONDS": "73184",
    "MEAN_MOTION": "14.54200751",
    "ECCENTRICITY": "0.0013352",
    "INCLINATION": "98.2636",
    "RA_OF_ASC_NODE": "258.0445",
    "ARG_OF_PERICENTER": "24.2996",
    "MEAN_ANOMALY": "335.8827",
    "EPHEMERIS_TYPE": "0",
    "ELEMENT_SET_NO": "999",
    "REV_AT_EPOCH": "31969",
    "BSTAR": "0.00011051",
    "MEAN_MOTION_DOT": "0.00000423",
    "MEAN_MOTION_DDOT": "0",
    "FILE": "3932626",
    "TLE_LINE0": "0 SPOT 4",
    "TLE_LINE1": "1 25260U 98017A   23165.02546381  .00000423  00000-0  11051-3 0  9996",
    "TLE_LINE2": "2 25260  98.2636 258.0445 0013352  24.2996 335.8827 14.54200751319698",
    "OBJECT_ID": "1998-017A",
    "OBJECT_NUMBER": "25260",
    "SEMIMAJOR_AXIS": "7090.098",
    "PERIOD": "99.023",
    "APOGEE": "721.430",
    "PERIGEE": "702.497",
    "DECAYED": "0"
  },
  {
    "COMMENT": "GENERATED VIA SPACETRACK.ORG API",
    "ORIGINATOR": "18 SPCS",
    "NORAD_CAT_ID": "25260",
    "OBJECT_NAME": "SPOT 4",
    "OBJECT_TYPE": "PAYLOAD",
    "CLASSIFICATION_TYPE": "U",
    "INTLDES": "98017A",
    "EPOCH": "2023-06-14 07:12:59",
    "EPOCH_MICROSECONDS": "685120",
    "MEAN_MOTION": "14.54201045",
    "ECCENTRICITY": "0.0013339",
    "INCLINATION": "98.2636",
    "RA_OF_ASC_NODE": "258.3163",
    "ARG_OF_PERICENTER": "23.5201",
    "MEAN_ANOMALY": "336.6603",
    "EPHEMERIS_TYPE": "0",
    "ELEMENT_SET_NO": "999",
    "REV_AT_EPOCH": "31973",
    "BSTAR": "0.00011222",
    "MEAN_MOTION_DOT": "0.0000043",
    "MEAN_MOTION_DDOT": "0",
    "FILE": "3932914",
    "TLE_LINE0": "0 SPOT 4",
    "TLE_LINE1": "1 25260U 98017A   23165.30069080  .00000430  00000-0  11222-3 0  9991",
    "TLE_LINE2": "2 25260  98.2636 258.3163 0013339  23.5201 336.6603 14.54201045319737",
    "OBJECT_ID": "1998-017A",
    "OBJECT_NUMBER": "25260",
    "SEMIMAJOR_AXIS": "7090.097",
    "PERIOD": "99.023",
    "APOGEE": "721.420",
    "PERIGEE": "702.505",
    "DECAYED": "0"
  },
  {
    "COMMENT": "GENERATED VIA SPACETRACK.ORG API",
    "ORIGINATOR": "18 SPCS",
    "NORAD_CAT_ID": "25260",
    "OBJECT_NAME": "SPOT 4",
    "OBJECT_TYPE": "PAYLOAD",
    "CLASSIFICATION_TYPE": "U",
    "INTLDES": "98017A",
    "EPOCH": "2023-06-14 07:12:59",
    "EPOCH_MICROSECONDS": "685120",
    "MEAN_MOTION": "14.54201045",
    "ECCENTRICITY": "0.0013339",
    "INCLINATION": "98.2636",
    "RA_OF_ASC_NODE": "258.3163",
    "ARG_OF_PERICENTER": "23.5201",
    "MEAN_ANOMALY": "336.6603",
    "EPHEMERIS_TYPE": "0",
    "ELEMENT_SET_NO": "999",
    "REV_AT_EPOCH": "31949",
    "BSTAR": "0.00011222",
    "MEAN_MOTION_DOT": "0.0000043",
    "MEAN_MOTION_DDOT": "0",
    "FILE": "3932965",
    "TLE_LINE0": "0 SPOT 4",
    "TLE_LINE1": "1 25260U 98017A   23165.30069080  .00000430  00000-0  11222-3 0  9991",
    "TLE_LINE2": "2 25260  98.2636 258.3163 0013339  23.5201 336.6603 14.54201045319490",
    "OBJECT_ID": "1998-017A",
    "OBJECT_NUMBER": "25260",
    "SEMIMAJOR_AXIS": "7090.097",
    "PERIOD": "99.023",
    "APOGEE": "721.420",
    "PERIGEE": "702.505",
    "DECAYED": "0"
  },
  {
    "COMMENT": "GENERATED VIA SPACETRACK.ORG API",
    "ORIGINATOR": "18 SPCS",
    "NORAD_CAT_ID": "25260",
    "OBJECT_NAME": "SPOT 4",
    "OBJECT_TYPE": "PAYLOAD",
    "CLASSIFICATION_TYPE": "U",
    "INTLDES": "98017A",
    "EPOCH": "2023-06-14 18:46:33",
    "EPOCH_MICROSECONDS": "976416",
    "MEAN_MOTION": "14.54201432",
    "ECCENTRICITY": "0.0013307",
    "INCLINATION": "98.2637",
    "RA_OF_ASC_NODE": "258.7919",
    "ARG_OF_PERICENTER": "22.1138",
    "MEAN_ANOMALY": "338.063",
    "EPHEMERIS_TYPE": "0",
    "ELEMENT_SET_NO": "999",
    "REV_AT_EPOCH": "31956",
    "BSTAR": "0.00010739",
    "MEAN_MOTION_DOT": "0.0000041",
    "MEAN_MOTION_DDOT": "0",
    "FILE": "3933215",
    "TLE_LINE0": "0 SPOT 4",
    "TLE_LINE1": "1 25260U 98017A   23165.78233769  .00000410  00000-0  10739-3 0  9990",
    "TLE_LINE2": "2 25260  98.2637 258.7919 0013307  22.1138 338.0630 14.54201432319567",
    "OBJECT_ID": "1998-017A",
    "OBJECT_NUMBER": "25260",
    "SEMIMAJOR_AXIS": "7090.096",
    "PERIOD": "99.023",
    "APOGEE": "721.396",
    "PERIGEE": "702.526",
    "DECAYED": "0"
  },
  {
    "COMMENT": "GENERATED VIA SPACETRACK.ORG API",
    "ORIGINATOR": "18 SPCS",
    "NORAD_CAT_ID": "25260",
    "OBJECT_NAME": "SPOT 4",
    "OBJECT_TYPE": "PAYLOAD",
    "CLASSIFICATION_TYPE": "U",
    "INTLDES": "98017A",
    "EPOCH": "2023-06-15 04:41:03",
    "EPOCH_MICROSECONDS": "366240",
    "MEAN_MOTION": "14.54201736",
    "ECCENTRICITY": "0.001328",
    "INCLINATION": "98.2637",
    "RA_OF_ASC_NODE": "259.1996",
    "ARG_OF_PERICENTER": "20.891",
    "MEAN_ANOMALY": "339.2827",
    "EPHEMERIS_TYPE": "0",
    "ELEMENT_SET_NO": "999",
    "REV_AT_EPOCH": "31986",
    "BSTAR": "0.00010409",
    "MEAN_MOTION_DOT": "0.00000396",
    "MEAN_MOTION_DDOT": "0",
    "FILE": "3933470",
    "TLE_LINE0": "0 SPOT 4",
    "TLE_LINE1": "1 25260U 98017A   23166.19517785  .00000396  00000-0  10409-3 0  9996",
    "TLE_LINE2": "2 25260  98.2637 259.1996 0013280  20.8910 339.2827 14.54201736319861",
    "OBJECT_ID": "1998-017A",
    "OBJECT_NUMBER": "25260",
    "SEMIMAJOR_AXIS": "7090.095",
    "PERIOD": "99.023",
    "APOGEE": "721.376",
    "PERIGEE": "702.545",
    "DECAYED": "0"
  },
  {
    "COMMENT": "GENERATED VIA SPACETRACK.ORG API",
    "ORIGINATOR": "18 SPCS",
    "NORAD_CAT_ID": "25260",
    "OBJECT_NAME": "SPOT 4",
    "OBJECT_TYPE": "PAYLOAD",
    "CLASSIFICATION_TYPE": "U",
    "INTLDES": "98017A",
    "EPOCH": "2023-06-15 06:20:08",
    "EPOCH_MICROSECONDS": "262528",
    "MEAN_MOTION": "14.54201803",
    "ECCENTRICITY": "0.0013275",
    "INCLINATION": "98.2637",
    "RA_OF_ASC_NODE": "259.2675",
    "ARG_OF_PERICENTER": "20.6832",
    "MEAN_ANOMALY": "339.49",
    "EPHEMERIS_TYPE": "0",
    "ELEMENT_SET_NO": "999",
    "REV_AT_EPOCH": "31987",
    "BSTAR": "0.00010386",
    "MEAN_MOTION_DOT": "0.00000395",
    "MEAN_MOTION_DDOT": "0",
    "FILE": "3933774",
    "TLE_LINE0": "0 SPOT 4",
    "TLE_LINE1": "1 25260U 98017A   23166.26398452  .00000395  00000-0  10386-3 0  9995",
    "TLE_LINE2": "2 25260  98.2637 259.2675 0013275  20.6832 339.4900 14.54201803319871",
    "OBJECT_ID": "1998-017A",
    "OBJECT_NUMBER": "25260",
    "SEMIMAJOR_AXIS": "7090.095",
    "PERIOD": "99.023",
    "APOGEE": "721.372",
    "PERIGEE": "702.548",
    "DECAYED": "0"
  },
  {
    "COMMENT": "GENERATED VIA SPACETRACK.ORG API",
    "ORIGINATOR": "18 SPCS",
    "NORAD_CAT_ID": "25260",
    "OBJECT_NAME": "SPOT 4",
    "OBJECT_TYPE": "PAYLOAD",
    "CLASSIFICATION_TYPE": "U",
    "INTLDES": "98017A",
    "EPOCH": "2023-06-15 06:20:08",
    "EPOCH_MICROSECONDS": "262528",
    "MEAN_MOTION": "14.54201803",
    "ECCENTRICITY": "0.0013275",
    "INCLINATION": "98.2637",
    "RA_OF_ASC_NODE": "259.2675",
    "ARG_OF_PERICENTER": "20.6832",
    "MEAN_ANOMALY": "339.49",
    "EPHEMERIS_TYPE": "0",
    "ELEMENT_SET_NO": "999",
    "REV_AT_EPOCH": "31963",
    "BSTAR": "0.00010386",
    "MEAN_MOTION_DOT": "0.00000395",
    "MEAN_MOTION_DDOT": "0",
    "FILE": "3933820",
    "TLE_LINE0": "0 SPOT 4",
    "TLE_LINE1": "1 25260U 98017A   23166.26398452  .00000395  00000-0  10386-3 0  9995",
    "TLE_LINE2": "2 25260  98.2637 259.2675 0013275  20.6832 339.4900 14.54201803319635",
    "OBJECT_ID": "1998-017A",
    "OBJECT_NUMBER": "25260",
    "SEMIMAJOR_AXIS": "7090.095",
    "PERIOD": "99.023",
    "APOGEE": "721.372",
    "PERIGEE": "702.548",
    "DECAYED": "0"
  },
  {
    "COMMENT": "GENERATED VIA SPACETRACK.ORG API",
    "ORIGINATOR": "18 SPCS",
    "NORAD_CAT_ID": "25260",
    "OBJECT_NAME": "SPOT 4",
    "OBJECT_TYPE": "PAYLOAD",
    "CLASSIFICATION_TYPE": "U",
    "INTLDES": "98017A",
    "EPOCH": "2023-06-15 17:53:42",
    "EPOCH_MICROSECONDS": "530496",
    "MEAN_MOTION": "14.54202316",
    "ECCENTRICITY": "0.0013242",
    "INCLINATION": "98.2638",
    "RA_OF_ASC_NODE": "259.7432",
    "ARG_OF_PERICENTER": "19.2368",
    "MEAN_ANOMALY": "340.9326",
    "EPHEMERIS_TYPE": "0",
    "ELEMENT_SET_NO": "999",
    "REV_AT_EPOCH": "31994",
    "BSTAR": "0.00010585",
    "MEAN_MOTION_DOT": "0.00000403",
    "MEAN_MOTION_DDOT": "0",
    "FILE": "3934009",
    "TLE_LINE0": "0 SPOT 4",
    "TLE_LINE1": "1 25260U 98017A   23166.74563114  .00000403  00000-0  10585-3 0  9998",
    "TLE_LINE2": "2 25260  98.2638 259.7432 0013242  19.2368 340.9326 14.54202316319947",
    "OBJECT_ID": "1998-017A",
    "OBJECT_NUMBER": "25260",
    "SEMIMAJOR_AXIS": "7090.093",
    "PERIOD": "99.023",
    "APOGEE": "721.347",
    "PERIGEE": "702.570",
    "DECAYED": "0"
  }
]